STARLINK-35725          
1 67565U 26016E   26047.50002314  .00121933  00000+0  80810-3 0  9996
2 67565  97.2836 106.8897 0001399  90.7876 291.4654 15.75151107  4631
STARLINK-36394          
1 67566U 26016F   26047.30730396  .00210383  00000+0  13751-2 0  9990
2 67566  97.2836 106.6792 0001626 113.8170 246.3266 15.75220905  3439
STARLINK-36352          
1 67567U 26016G   26047.41679241  .00373830  00000+0  18603-2 0  9992
2 67567  97.2835 106.8367 0002610 124.5422 235.6093 15.80930022  3457
STARLINK-36435          
1 67568U 26016H   26047.41453825  .00245231  00000+0  12444-2 0  9991
2 67568  97.2841 106.8394 0000406 224.1009 136.0227 15.80832750  3456
STARLINK-36575          
1 67569U 26016J   26047.35003007  .00282327  00000+0  14222-2 0  9991
2 67569  97.2835 106.7777 0001367  78.7526 281.3896 15.80897903  3444
STARLINK-36562          
1 67570U 26016K   26047.34912332  .00234766  00000+0  11916-2 0  9993
2 67570  97.2837 106.7785 0001433  52.4141 307.7257 15.80853910  3447
STARLINK-36578          
1 67571U 26016L   26047.30942280  .00309191  00000+0  19953-2 0  9999
2 67571  97.2829 106.6782 0001410 100.8695 259.2729 15.75240753  3435
STARLINK-36350          
1 67572U 26016M   26047.42871146  .00171250  00000+0  11246-2 0  9995
2 67572  97.2838 106.8205 0001879 111.4135 248.7331 15.75221074  3453
STARLINK-36588          
1 67573U 26016N   26047.43082859  .00257776  00000+0  16729-2 0  9991
2 67573  97.2829 106.8187 0002081 121.9961 238.1507 15.75252160  3450
STARLINK-36594          
1 67574U 26016P   26047.47101160  .00314049  00000+0  15750-2 0  9993
2 67574  97.2840 106.9173 0001082  28.1390 331.9936 15.80912498  3466
STARLINK-36400          
1 67575U 26016Q   26047.50002314  .00140755  00000+0  93155-3 0  9996
2 67575  97.2844 106.9345 0001267  93.8506  38.4090 15.75128559  4580
STARLINK-36591          
1 67576U 26016R   26047.46898078  .00172470  00000+0  88157-3 0  9997
2 67576  97.2846 106.9201 0001439 101.5285 258.6145 15.80863104  3467
