CCSDS_OMM_VERS = 2.0
CREATION_DATE  = 
ORIGINATOR     = 

OBJECT_NAME    = STARLINK-35725
OBJECT_ID      = 2026-016E
CENTER_NAME    = EARTH
REF_FRAME      = TEME
TIME_SYSTEM    = UTC
MEAN_ELEMENT_THEORY = SGP/SGP4

EPOCH          = 2026-02-16T12:00:01.999296
MEAN_MOTION    = 15.75151107
ECCENTRICITY   = .0001399
INCLINATION    = 97.2836
RA_OF_ASC_NODE = 106.8897
ARG_OF_PERICENTER = 90.7876
MEAN_ANOMALY   = 291.4654

EPHEMERIS_TYPE = 0
CLASSIFICATION_TYPE = U
NORAD_CAT_ID   = 67565
ELEMENT_SET_NO = 999
REV_AT_EPOCH   = 463
BSTAR          = .8081E-3
MEAN_MOTION_DOT = .121933E-2
MEAN_MOTION_DDOT = 0

CCSDS_OMM_VERS = 2.0
CREATION_DATE  = 
ORIGINATOR     = 

OBJECT_NAME    = STARLINK-36394
OBJECT_ID      = 2026-016F
CENTER_NAME    = EARTH
REF_FRAME      = TEME
TIME_SYSTEM    = UTC
MEAN_ELEMENT_THEORY = SGP/SGP4

EPOCH          = 2026-02-16T07:22:31.062144
MEAN_MOTION    = 15.75220905
ECCENTRICITY   = .0001626
INCLINATION    = 97.2836
RA_OF_ASC_NODE = 106.6792
ARG_OF_PERICENTER = 113.8170
MEAN_ANOMALY   = 246.3266

EPHEMERIS_TYPE = 0
CLASSIFICATION_TYPE = U
NORAD_CAT_ID   = 67566
ELEMENT_SET_NO = 999
REV_AT_EPOCH   = 343
BSTAR          = .13751E-2
MEAN_MOTION_DOT = .210383E-2
MEAN_MOTION_DDOT = 0

CCSDS_OMM_VERS = 2.0
CREATION_DATE  = 
ORIGINATOR     = 

OBJECT_NAME    = STARLINK-36352
OBJECT_ID      = 2026-016G
CENTER_NAME    = EARTH
REF_FRAME      = TEME
TIME_SYSTEM    = UTC
MEAN_ELEMENT_THEORY = SGP/SGP4

EPOCH          = 2026-02-16T10:00:10.864224
MEAN_MOTION    = 15.80930022
ECCENTRICITY   = .000261
INCLINATION    = 97.2835
RA_OF_ASC_NODE = 106.8367
ARG_OF_PERICENTER = 124.5422
MEAN_ANOMALY   = 235.6093

EPHEMERIS_TYPE = 0
CLASSIFICATION_TYPE = U
NORAD_CAT_ID   = 67567
ELEMENT_SET_NO = 999
REV_AT_EPOCH   = 345
BSTAR          = .18603E-2
MEAN_MOTION_DOT = .37383E-2
MEAN_MOTION_DDOT = 0

CCSDS_OMM_VERS = 2.0
CREATION_DATE  = 
ORIGINATOR     = 

OBJECT_NAME    = STARLINK-36435
OBJECT_ID      = 2026-016H
CENTER_NAME    = EARTH
REF_FRAME      = TEME
TIME_SYSTEM    = UTC
MEAN_ELEMENT_THEORY = SGP/SGP4

EPOCH          = 2026-02-16T09:56:56.104800
MEAN_MOTION    = 15.80832750
ECCENTRICITY   = .0000406
INCLINATION    = 97.2841
RA_OF_ASC_NODE = 106.8394
ARG_OF_PERICENTER = 224.1009
MEAN_ANOMALY   = 136.0227

EPHEMERIS_TYPE = 0
CLASSIFICATION_TYPE = U
NORAD_CAT_ID   = 67568
ELEMENT_SET_NO = 999
REV_AT_EPOCH   = 345
BSTAR          = .12444E-2
MEAN_MOTION_DOT = .245231E-2
MEAN_MOTION_DDOT = 0

CCSDS_OMM_VERS = 2.0
CREATION_DATE  = 
ORIGINATOR     = 

OBJECT_NAME    = STARLINK-36575
OBJECT_ID      = 2026-016J
CENTER_NAME    = EARTH
REF_FRAME      = TEME
TIME_SYSTEM    = UTC
MEAN_ELEMENT_THEORY = SGP/SGP4

EPOCH          = 2026-02-16T08:24:02.598048
MEAN_MOTION    = 15.80897903
ECCENTRICITY   = .0001367
INCLINATION    = 97.2835
RA_OF_ASC_NODE = 106.7777
ARG_OF_PERICENTER = 78.7526
MEAN_ANOMALY   = 281.3896

EPHEMERIS_TYPE = 0
CLASSIFICATION_TYPE = U
NORAD_CAT_ID   = 67569
ELEMENT_SET_NO = 999
REV_AT_EPOCH   = 344
BSTAR          = .14222E-2
MEAN_MOTION_DOT = .282327E-2
MEAN_MOTION_DDOT = 0

CCSDS_OMM_VERS = 2.0
CREATION_DATE  = 
ORIGINATOR     = 

OBJECT_NAME    = STARLINK-36562
OBJECT_ID      = 2026-016K
CENTER_NAME    = EARTH
REF_FRAME      = TEME
TIME_SYSTEM    = UTC
MEAN_ELEMENT_THEORY = SGP/SGP4

EPOCH          = 2026-02-16T08:22:44.254848
MEAN_MOTION    = 15.80853910
ECCENTRICITY   = .0001433
INCLINATION    = 97.2837
RA_OF_ASC_NODE = 106.7785
ARG_OF_PERICENTER = 52.4141
MEAN_ANOMALY   = 307.7257

EPHEMERIS_TYPE = 0
CLASSIFICATION_TYPE = U
NORAD_CAT_ID   = 67570
ELEMENT_SET_NO = 999
REV_AT_EPOCH   = 344
BSTAR          = .11916E-2
MEAN_MOTION_DOT = .234766E-2
MEAN_MOTION_DDOT = 0

CCSDS_OMM_VERS = 2.0
CREATION_DATE  = 
ORIGINATOR     = 

OBJECT_NAME    = STARLINK-36578
OBJECT_ID      = 2026-016L
CENTER_NAME    = EARTH
REF_FRAME      = TEME
TIME_SYSTEM    = UTC
MEAN_ELEMENT_THEORY = SGP/SGP4

EPOCH          = 2026-02-16T07:25:34.129920
MEAN_MOTION    = 15.75240753
ECCENTRICITY   = .000141
INCLINATION    = 97.2829
RA_OF_ASC_NODE = 106.6782
ARG_OF_PERICENTER = 100.8695
MEAN_ANOMALY   = 259.2729

EPHEMERIS_TYPE = 0
CLASSIFICATION_TYPE = U
NORAD_CAT_ID   = 67571
ELEMENT_SET_NO = 999
REV_AT_EPOCH   = 343
BSTAR          = .19953E-2
MEAN_MOTION_DOT = .309191E-2
MEAN_MOTION_DDOT = 0

CCSDS_OMM_VERS = 2.0
CREATION_DATE  = 
ORIGINATOR     = 

OBJECT_NAME    = STARLINK-36350
OBJECT_ID      = 2026-016M
CENTER_NAME    = EARTH
REF_FRAME      = TEME
TIME_SYSTEM    = UTC
MEAN_ELEMENT_THEORY = SGP/SGP4

EPOCH          = 2026-02-16T10:17:20.670144
MEAN_MOTION    = 15.75221074
ECCENTRICITY   = .0001879
INCLINATION    = 97.2838
RA_OF_ASC_NODE = 106.8205
ARG_OF_PERICENTER = 111.4135
MEAN_ANOMALY   = 248.7331

EPHEMERIS_TYPE = 0
CLASSIFICATION_TYPE = U
NORAD_CAT_ID   = 67572
ELEMENT_SET_NO = 999
REV_AT_EPOCH   = 345
BSTAR          = .11246E-2
MEAN_MOTION_DOT = .17125E-2
MEAN_MOTION_DDOT = 0

CCSDS_OMM_VERS = 2.0
CREATION_DATE  = 
ORIGINATOR     = 

OBJECT_NAME    = STARLINK-36588
OBJECT_ID      = 2026-016N
CENTER_NAME    = EARTH
REF_FRAME      = TEME
TIME_SYSTEM    = UTC
MEAN_ELEMENT_THEORY = SGP/SGP4

EPOCH          = 2026-02-16T10:20:23.590176
MEAN_MOTION    = 15.75252160
ECCENTRICITY   = .0002081
INCLINATION    = 97.2829
RA_OF_ASC_NODE = 106.8187
ARG_OF_PERICENTER = 121.9961
MEAN_ANOMALY   = 238.1507

EPHEMERIS_TYPE = 0
CLASSIFICATION_TYPE = U
NORAD_CAT_ID   = 67573
ELEMENT_SET_NO = 999
REV_AT_EPOCH   = 345
BSTAR          = .16729E-2
MEAN_MOTION_DOT = .257776E-2
MEAN_MOTION_DDOT = 0

CCSDS_OMM_VERS = 2.0
CREATION_DATE  = 
ORIGINATOR     = 

OBJECT_NAME    = STARLINK-36594
OBJECT_ID      = 2026-016P
CENTER_NAME    = EARTH
REF_FRAME      = TEME
TIME_SYSTEM    = UTC
MEAN_ELEMENT_THEORY = SGP/SGP4

EPOCH          = 2026-02-16T11:18:15.402240
MEAN_MOTION    = 15.80912498
ECCENTRICITY   = .0001082
INCLINATION    = 97.2840
RA_OF_ASC_NODE = 106.9173
ARG_OF_PERICENTER = 28.1390
MEAN_ANOMALY   = 331.9936

EPHEMERIS_TYPE = 0
CLASSIFICATION_TYPE = U
NORAD_CAT_ID   = 67574
ELEMENT_SET_NO = 999
REV_AT_EPOCH   = 346
BSTAR          = .1575E-2
MEAN_MOTION_DOT = .314049E-2
MEAN_MOTION_DDOT = 0

CCSDS_OMM_VERS = 2.0
CREATION_DATE  = 
ORIGINATOR     = 

OBJECT_NAME    = STARLINK-36400
OBJECT_ID      = 2026-016Q
CENTER_NAME    = EARTH
REF_FRAME      = TEME
TIME_SYSTEM    = UTC
MEAN_ELEMENT_THEORY = SGP/SGP4

EPOCH          = 2026-02-16T12:00:01.999296
MEAN_MOTION    = 15.75128559
ECCENTRICITY   = .0001267
INCLINATION    = 97.2844
RA_OF_ASC_NODE = 106.9345
ARG_OF_PERICENTER = 93.8506
MEAN_ANOMALY   = 38.4090

EPHEMERIS_TYPE = 0
CLASSIFICATION_TYPE = U
NORAD_CAT_ID   = 67575
ELEMENT_SET_NO = 999
REV_AT_EPOCH   = 458
BSTAR          = .93155E-3
MEAN_MOTION_DOT = .140755E-2
MEAN_MOTION_DDOT = 0

CCSDS_OMM_VERS = 2.0
CREATION_DATE  = 
ORIGINATOR     = 

OBJECT_NAME    = STARLINK-36591
OBJECT_ID      = 2026-016R
CENTER_NAME    = EARTH
REF_FRAME      = TEME
TIME_SYSTEM    = UTC
MEAN_ELEMENT_THEORY = SGP/SGP4

EPOCH          = 2026-02-16T11:15:19.939392
MEAN_MOTION    = 15.80863104
ECCENTRICITY   = .0001439
INCLINATION    = 97.2846
RA_OF_ASC_NODE = 106.9201
ARG_OF_PERICENTER = 101.5285
MEAN_ANOMALY   = 258.6145

EPHEMERIS_TYPE = 0
CLASSIFICATION_TYPE = U
NORAD_CAT_ID   = 67576
ELEMENT_SET_NO = 999
REV_AT_EPOCH   = 346
BSTAR          = .88157E-3
MEAN_MOTION_DOT = .17247E-2
MEAN_MOTION_DDOT = 0

